{"fetched_at":"2026-03-29T02:12:04Z","count":15717,"tles":[{"name":"TIANHUI 5D","line1":"1 60212U 24126B   26086.50753131  .00000460  00000+0  56554-4 0  9991","line2":"2 60212  97.8212  95.2301 0002110  93.6549 266.4908 14.87584524 93759","category":"Other"}]}