{
  "norad_id": 60212,
  "name": "TIANHUI 5D",
  "history": [
    {
      "epoch": "2026-03-27T12:10:50.705184",
      "apogee_km": 606.9587992588031,
      "perigee_km": 604.0117106672087,
      "latitude_deg": 26.430896881876563,
      "longitude_deg": 153.92300575994886,
      "semi_major_axis_km": 6983.622254963006,
      "eccentricity": 0.000211,
      "inclination_deg": 97.8212,
      "raan_deg": 95.2301,
      "arg_perigee_deg": 93.6549,
      "mean_anomaly_deg": 266.4908,
      "mean_motion_rev_day": 14.87584524
    }
  ]
}